{"type": "FeatureCollection", "features": [ {"type": "Feature", "properties": {"norad_id": 66747, "name": "W-SERIES 5", "group": "last-30-days", "lat": -74.42623268282956, "lon": 99.93153948522612, "alt_km": 520.6563950418376, "timestamp": "2025-12-26T10:30:48.974493+00:00", "meta": {"OBJECT_NAME": "W-SERIES 5", "OBJECT_ID": "2025-276CK", "EPOCH": "2025-12-26T04:31:10.062624", "MEAN_MOTION": 15.17569655, "ECCENTRICITY": 0.0001546, "INCLINATION": 97.4406, "RA_OF_ASC_NODE": 71.723, "ARG_OF_PERICENTER": 187.1365, "MEAN_ANOMALY": 172.9847, "EPHEMERIS_TYPE": 0, "CLASSIFICATION_TYPE": "U", "NORAD_CAT_ID": 66747, "ELEMENT_SET_NO": 999, "REV_AT_EPOCH": 416, "BSTAR": 0.00019989, "MEAN_MOTION_DOT": 3.947e-05, "MEAN_MOTION_DDOT": 0}, "tle": {"line1": "1 66747U 25276CK  25360.18831091  .00003947  00000+0  19989-3 0  9990", "line2": "2 66747  97.4406  71.7230 0001546 187.1365 172.9847 15.17569655  4168"}}, "geometry": {"type": "Point", "coordinates": [99.93153948522612, -74.42623268282956]}}, {"type": "Feature", "properties": {"norad_id": 66748, "name": "TRANSPORTER-15CL", "group": "last-30-days", "lat": -15.7236159441885, "lon": 74.10026418868485, "alt_km": 515.8833000411905, "timestamp": "2025-12-26T10:30:48.974503+00:00", "meta": {"OBJECT_NAME": "TRANSPORTER-15CL", "OBJECT_ID": "2025-276CL", "EPOCH": "2025-12-26T02:40:35.253696", "MEAN_MOTION": 15.18634563, "ECCENTRICITY": 0.0002125, "INCLINATION": 97.4398, "RA_OF_ASC_NODE": 71.6706, "ARG_OF_PERICENTER": 208.1984, "MEAN_ANOMALY": 151.9135, "EPHEMERIS_TYPE": 0, "CLASSIFICATION_TYPE": "U", "NORAD_CAT_ID": 66748, "ELEMENT_SET_NO": 999, "REV_AT_EPOCH": 415, "BSTAR": 0.00093217, "MEAN_MOTION_DOT": 0.0001927, "MEAN_MOTION_DDOT": 0}, "tle": {"line1": "1 66748U 25276CL  25360.11151914  .00019270  00000+0  93217-3 0  9995", "line2": "2 66748  97.4398  71.6706 0002125 208.1984 151.9135 15.18634563  4159"}}, "geometry": {"type": "Point", "coordinates": [74.10026418868485, -15.7236159441885]}}, {"type": "Feature", "properties": {"norad_id": 66749, "name": "TRANSPORTER-15CM", "group": "last-30-days", "lat": -48.5871998466001, "lon": 80.49423873736556, "alt_km": 520.0776271470777, "timestamp": "2025-12-26T10:30:48.974513+00:00", "meta": {"OBJECT_NAME": "TRANSPORTER-15CM", "OBJECT_ID": "2025-276CM", "EPOCH": "2025-12-26T02:49:09.267168", "MEAN_MOTION": 15.17921094, "ECCENTRICITY": 0.0002145, "INCLINATION": 97.4394, "RA_OF_ASC_NODE": 71.6596, "ARG_OF_PERICENTER": 175.8719, "MEAN_ANOMALY": 184.2533, "EPHEMERIS_TYPE": 0, "CLASSIFICATION_TYPE": "U", "NORAD_CAT_ID": 66749, "ELEMENT_SET_NO": 999, "REV_AT_EPOCH": 415, "BSTAR": 0.00046319, "MEAN_MOTION_DOT": 9.335e-05, "MEAN_MOTION_DDOT": 0}, "tle": {"line1": "1 66749U 25276CM  25360.11746837  .00009335  00000+0  46319-3 0  9992", "line2": "2 66749  97.4394  71.6596 0002145 175.8719 184.2533 15.17921094  4159"}}, "geometry": {"type": "Point", "coordinates": [80.49423873736556, -48.5871998466001]}}, {"type": "Feature", "properties": {"norad_id": 66750, "name": "TRANSPORTER-15CN", "group": "last-30-days", "lat": -28.659057261065453, "lon": 76.09804687149729, "alt_km": 520.0797347554853, "timestamp": "2025-12-26T10:30:48.974525+00:00", "meta": {"OBJECT_NAME": "TRANSPORTER-15CN", "OBJECT_ID": "2025-276CN", "EPOCH": "2025-12-26T04:18:58.396320", "MEAN_MOTION": 15.18728614, "ECCENTRICITY": 0.0007444, "INCLINATION": 97.4465, "RA_OF_ASC_NODE": 71.7443, "ARG_OF_PERICENTER": 149.789, "MEAN_ANOMALY": 210.3775, "EPHEMERIS_TYPE": 0, "CLASSIFICATION_TYPE": "U", "NORAD_CAT_ID": 66750, "ELEMENT_SET_NO": 999, "REV_AT_EPOCH": 416, "BSTAR": 0.020604, "MEAN_MOTION_DOT": 0.00455089, "MEAN_MOTION_DDOT": 0}, "tle": {"line1": "1 66750U 25276CN  25360.17984255  .00455089  00000+0  20604-1 0  9996", "line2": "2 66750  97.4465  71.7443 0007444 149.7890 210.3775 15.18728614  4163"}}, "geometry": {"type": "Point", "coordinates": [76.09804687149729, -28.659057261065453]}}, {"type": "Feature", "properties": {"norad_id": 66751, "name": "ICEYE-X58", "group": "last-30-days", "lat": -51.40740046735465, "lon": 81.40690480728547, "alt_km": 520.2187174427254, "timestamp": "2025-12-26T10:30:48.974536+00:00", "meta": {"OBJECT_NAME": "ICEYE-X58", "OBJECT_ID": "2025-276CP", "EPOCH": "2025-12-26T04:24:49.227840", "MEAN_MOTION": 15.17831318, "ECCENTRICITY": 0.0002648, "INCLINATION": 97.4406, "RA_OF_ASC_NODE": 71.7322, "ARG_OF_PERICENTER": 191.3982, "MEAN_ANOMALY": 168.7192, "EPHEMERIS_TYPE": 0, "CLASSIFICATION_TYPE": "U", "NORAD_CAT_ID": 66751, "ELEMENT_SET_NO": 999, "REV_AT_EPOCH": 416, "BSTAR": 0.00025795, "MEAN_MOTION_DOT": 5.153e-05, "MEAN_MOTION_DDOT": 0}, "tle": {"line1": "1 66751U 25276CP  25360.18390310  .00005153  00000+0  25795-3 0  9992", "line2": "2 66751  97.4406  71.7322 0002648 191.3982 168.7192 15.17831318  4165"}}, "geometry": {"type": "Point", "coordinates": [81.40690480728547, -51.40740046735465]}}, {"type": "Feature", "properties": {"norad_id": 66752, "name": "ICEYE-X59", "group": "last-30-days", "lat": -69.769865178728, "lon": 92.74237851087962, "alt_km": 519.8327884939581, "timestamp": "2025-12-26T10:30:48.974568+00:00", "meta": {"OBJECT_NAME": "ICEYE-X59", "OBJECT_ID": "2025-276CQ", "EPOCH": "2025-12-26T04:29:49.300224", "MEAN_MOTION": 15.17637779, "ECCENTRICITY": 0.0002022, "INCLINATION": 97.44, "RA_OF_ASC_NODE": 71.7273, "ARG_OF_PERICENTER": 218.0353, "MEAN_ANOMALY": 142.0738, "EPHEMERIS_TYPE": 0, "CLASSIFICATION_TYPE": "U", "NORAD_CAT_ID": 66752, "ELEMENT_SET_NO": 999, "REV_AT_EPOCH": 416, "BSTAR": 0.00039606, "MEAN_MOTION_DOT": 7.906e-05, "MEAN_MOTION_DDOT": 0}, "tle": {"line1": "1 66752U 25276CQ  25360.18737616  .00007906  00000+0  39606-3 0  9991", "line2": "2 66752  97.4400  71.7273 0002022 218.0353 142.0738 15.17637779  4166"}}, "geometry": {"type": "Point", "coordinates": [92.74237851087962, -69.769865178728]}}, {"type": "Feature", "properties": {"norad_id": 66753, "name": "ICEYE-X60", "group": "last-30-days", "lat": -81.33658844296696, "lon": -167.09639176308548, "alt_km": 520.2955858234627, "timestamp": "2025-12-26T10:30:48.974581+00:00", "meta": {"OBJECT_NAME": "ICEYE-X60", "OBJECT_ID": "2025-276CR", "EPOCH": "2025-12-26T04:35:55.534272", "MEAN_MOTION": 15.17412095, "ECCENTRICITY": 0.0001105, "INCLINATION": 97.4402, "RA_OF_ASC_NODE": 71.7177, "ARG_OF_PERICENTER": 249.7032, "MEAN_ANOMALY": 110.4083, "EPHEMERIS_TYPE": 0, "CLASSIFICATION_TYPE": "U", "NORAD_CAT_ID": 66753, "ELEMENT_SET_NO": 999, "REV_AT_EPOCH": 416, "BSTAR": 0.00024824, "MEAN_MOTION_DOT": 4.896e-05, "MEAN_MOTION_DDOT": 0}, "tle": {"line1": "1 66753U 25276CR  25360.19161498  .00004896  00000+0  24824-3 0  9993", "line2": "2 66753  97.4402  71.7177 0001105 249.7032 110.4083 15.17412095  4162"}}, "geometry": {"type": "Point", "coordinates": [-167.09639176308548, -81.33658844296696]}}, {"type": "Feature", "properties": {"norad_id": 66754, "name": "ICEYE-X61", "group": "last-30-days", "lat": -46.20059918327516, "lon": 79.81116603002708, "alt_km": 520.295498733788, "timestamp": "2025-12-26T10:30:48.974591+00:00", "meta": {"OBJECT_NAME": "ICEYE-X61", "OBJECT_ID": "2025-276CS", "EPOCH": "2025-12-26T02:48:30.019968", "MEAN_MOTION": 15.17880162, "ECCENTRICITY": 0.0002575, "INCLINATION": 97.4398, "RA_OF_ASC_NODE": 71.6636, "ARG_OF_PERICENTER": 180.2404, "MEAN_ANOMALY": 179.8829, "EPHEMERIS_TYPE": 0, "CLASSIFICATION_TYPE": "U", "NORAD_CAT_ID": 66754, "ELEMENT_SET_NO": 999, "REV_AT_EPOCH": 415, "BSTAR": 0.0004356, "MEAN_MOTION_DOT": 8.764e-05, "MEAN_MOTION_DDOT": 0}, "tle": {"line1": "1 66754U 25276CS  25360.11701412  .00008764  00000+0  43560-3 0  9998", "line2": "2 66754  97.4398  71.6636 0002575 180.2404 179.8829 15.17880162  4150"}}, "geometry": {"type": "Point", "coordinates": [79.81116603002708, -46.20059918327516]}}, {"type": "Feature", "properties": {"norad_id": 66755, "name": "ICEYE-X62", "group": "last-30-days", "lat": -70.95475109383652, "lon": 94.21141272031363, "alt_km": 520.1478290242521, "timestamp": "2025-12-26T10:30:48.974603+00:00", "meta": {"OBJECT_NAME": "ICEYE-X62", "OBJECT_ID": "2025-276CT", "EPOCH": "2025-12-26T02:55:13.254816", "MEAN_MOTION": 15.17652779, "ECCENTRICITY": 0.0001211, "INCLINATION": 97.4401, "RA_OF_ASC_NODE": 71.6566, "ARG_OF_PERICENTER": 204.8692, "MEAN_ANOMALY": 155.2483, "EPHEMERIS_TYPE": 0, "CLASSIFICATION_TYPE": "U", "NORAD_CAT_ID": 66755, "ELEMENT_SET_NO": 999, "REV_AT_EPOCH": 415, "BSTAR": 0.00024728, "MEAN_MOTION_DOT": 4.911e-05, "MEAN_MOTION_DDOT": 0}, "tle": {"line1": "1 66755U 25276CT  25360.12168119  .00004911  00000+0  24728-3 0  9996", "line2": "2 66755  97.4401  71.6566 0001211 204.8692 155.2483 15.17652779  4151"}}, "geometry": {"type": "Point", "coordinates": [94.21141272031363, -70.95475109383652]}}, {"type": "Feature", "properties": {"norad_id": 66756, "name": "TRANSPORTER-15CU", "group": "last-30-days", "lat": -39.220110450605546, "lon": 78.10910614509966, "alt_km": 519.7251186742769, "timestamp": "2025-12-26T10:30:48.974614+00:00", "meta": {"OBJECT_NAME": "TRANSPORTER-15CU", "OBJECT_ID": "2025-276CU", "EPOCH": "2025-12-26T02:46:39.353664", "MEAN_MOTION": 15.17980462, "ECCENTRICITY": 0.0001833, "INCLINATION": 97.4407, "RA_OF_ASC_NODE": 71.6691, "ARG_OF_PERICENTER": 150.3484, "MEAN_ANOMALY": 209.7854, "EPHEMERIS_TYPE": 0, "CLASSIFICATION_TYPE": "U", "NORAD_CAT_ID": 66756, "ELEMENT_SET_NO": 999, "REV_AT_EPOCH": 415, "BSTAR": 0.00029284, "MEAN_MOTION_DOT": 5.885e-05, "MEAN_MOTION_DDOT": 0}, "tle": {"line1": "1 66756U 25276CU  25360.11573326  .00005885  00000+0  29284-3 0  9999", "line2": "2 66756  97.4407  71.6691 0001833 150.3484 209.7854 15.17980462  4151"}}, "geometry": {"type": "Point", "coordinates": [78.10910614509966, -39.220110450605546]}}]}